[{"OBJECT_NAME":"ONEWEB-0572","OBJECT_ID":"2023-004M","EPOCH":"2025-11-26T03:53:40.197120","MEAN_MOTION":13.17647822,"ECCENTRICITY":0.000168,"INCLINATION":87.9136,"RA_OF_ASC_NODE":46.2399,"ARG_OF_PERICENTER":95.5161,"MEAN_ANOMALY":264.6162,"EPHEMERIS_TYPE":0,"CLASSIFICATION_TYPE":"U","NORAD_CAT_ID":55151,"ELEMENT_SET_NO":999,"REV_AT_EPOCH":14074,"BSTAR":0.00015188,"MEAN_MOTION_DOT":7.2e-7,"MEAN_MOTION_DDOT":0},{"OBJECT_NAME":"ONEWEB-0573","OBJECT_ID":"2023-004N","EPOCH":"2025-11-26T03:28:20.642304","MEAN_MOTION":13.18684471,"ECCENTRICITY":0.0001474,"INCLINATION":87.9179,"RA_OF_ASC_NODE":15.822,"ARG_OF_PERICENTER":70.2234,"MEAN_ANOMALY":289.9057,"EPHEMERIS_TYPE":0,"CLASSIFICATION_TYPE":"U","NORAD_CAT_ID":55152,"ELEMENT_SET_NO":999,"REV_AT_EPOCH":14293,"BSTAR":7.2604e-5,"MEAN_MOTION_DOT":4.2e-7,"MEAN_MOTION_DDOT":0},{"OBJECT_NAME":"ONEWEB-0588","OBJECT_ID":"2023-004P","EPOCH":"2025-11-26T03:18:51.369120","MEAN_MOTION":13.18685217,"ECCENTRICITY":0.0001416,"INCLINATION":87.9191,"RA_OF_ASC_NODE":15.8164,"ARG_OF_PERICENTER":88.8285,"MEAN_ANOMALY":271.3009,"EPHEMERIS_TYPE":0,"CLASSIFICATION_TYPE":"U","NORAD_CAT_ID":55153,"ELEMENT_SET_NO":999,"REV_AT_EPOCH":14293,"BSTAR":0.00014358,"MEAN_MOTION_DOT":7.0e-7,"MEAN_MOTION_DDOT":0},{"OBJECT_NAME":"ONEWEB-0598","OBJECT_ID":"2023-004Q","EPOCH":"2025-11-25T23:34:00.641568","MEAN_MOTION":13.11416907,"ECCENTRICITY":0.00019369,"INCLINATION":87.8859,"RA_OF_ASC_NODE":61.5419,"ARG_OF_PERICENTER":85.089,"MEAN_ANOMALY":275.046,"EPHEMERIS_TYPE":0,"CLASSIFICATION_TYPE":"U","NORAD_CAT_ID":55154,"ELEMENT_SET_NO":999,"REV_AT_EPOCH":13926,"BSTAR":-0.0014302219,"MEAN_MOTION_DOT":-4.94e-6,"MEAN_MOTION_DDOT":0},{"OBJECT_NAME":"ONEWEB-0599","OBJECT_ID":"2023-004R","EPOCH":"2025-11-26T04:47:07.264896","MEAN_MOTION":13.17647911,"ECCENTRICITY":0.0001979,"INCLINATION":87.9132,"RA_OF_ASC_NODE":46.2348,"ARG_OF_PERICENTER":97.9001,"MEAN_ANOMALY":262.2355,"EPHEMERIS_TYPE":0,"CLASSIFICATION_TYPE":"U","NORAD_CAT_ID":55155,"ELEMENT_SET_NO":999,"REV_AT_EPOCH":14075,"BSTAR":0.00012362,"MEAN_MOTION_DOT":6.1e-7,"MEAN_MOTION_DDOT":0},{"OBJECT_NAME":"ONEWEB-0614","OBJECT_ID":"2023-004S","EPOCH":"2025-11-26T04:56:17.649312","MEAN_MOTION":13.11415654,"ECCENTRICITY":0.000139,"INCLINATION":87.8861,"RA_OF_ASC_NODE":61.5069,"ARG_OF_PERICENTER":110.6967,"MEAN_ANOMALY":249.431,"EPHEMERIS_TYPE":0,"CLASSIFICATION_TYPE":"U","NORAD_CAT_ID":55156,"ELEMENT_SET_NO":999,"REV_AT_EPOCH":13923,"BSTAR":-0.0013301,"MEAN_MOTION_DOT":-4.59e-6,"MEAN_MOTION_DDOT":0},{"OBJECT_NAME":"ONEWEB-0616","OBJECT_ID":"2023-004T","EPOCH":"2025-11-26T03:58:31.575072","MEAN_MOTION":13.176481,"ECCENTRICITY":0.0002758,"INCLINATION":87.9136,"RA_OF_ASC_NODE":46.2325,"ARG_OF_PERICENTER":105.6771,"MEAN_ANOMALY":254.4665,"EPHEMERIS_TYPE":0,"CLASSIFICATION_TYPE":"U","NORAD_CAT_ID":55157,"ELEMENT_SET_NO":999,"REV_AT_EPOCH":14096,"BSTAR":0.00010724,"MEAN_MOTION_DOT":5.5e-7,"MEAN_MOTION_DDOT":0},{"OBJECT_NAME":"ONEWEB-0617","OBJECT_ID":"2023-004U","EPOCH":"2025-11-26T04:39:12.252384","MEAN_MOTION":13.11414872,"ECCENTRICITY":0.0001368,"INCLINATION":87.8864,"RA_OF_ASC_NODE":61.4883,"ARG_OF_PERICENTER":101.4355,"MEAN_ANOMALY":258.6927,"EPHEMERIS_TYPE":0,"CLASSIFICATION_TYPE":"U","NORAD_CAT_ID":55158,"ELEMENT_SET_NO":999,"REV_AT_EPOCH":13925,"BSTAR":-0.00026994,"MEAN_MOTION_DOT":-8.3e-7,"MEAN_MOTION_DDOT":0},{"OBJECT_NAME":"ONEWEB-0618","OBJECT_ID":"2023-004V","EPOCH":"2025-11-26T01:36:40.274784","MEAN_MOTION":15.10272932,"ECCENTRICITY":0.0012173,"INCLINATION":86.9091,"RA_OF_ASC_NODE":259.9789,"ARG_OF_PERICENTER":341.0713,"MEAN_ANOMALY":19.0071,"EPHEMERIS_TYPE":0,"CLASSIFICATION_TYPE":"U","NORAD_CAT_ID":55159,"ELEMENT_SET_NO":999,"REV_AT_EPOCH":15157,"BSTAR":0.00065632,"MEAN_MOTION_DOT":0.00010791,"MEAN_MOTION_DDOT":0},{"OBJECT_NAME":"ONEWEB-0619","OBJECT_ID":"2023-004W","EPOCH":"2025-11-26T04:44:41.754336","MEAN_MOTION":13.17647213,"ECCENTRICITY":0.0001869,"INCLINATION":87.9133,"RA_OF_ASC_NODE":46.2,"ARG_OF_PERICENTER":117.3649,"MEAN_ANOMALY":242.7673,"EPHEMERIS_TYPE":0,"CLASSIFICATION_TYPE":"U","NORAD_CAT_ID":55160,"ELEMENT_SET_NO":999,"REV_AT_EPOCH":14086,"BSTAR":-4.9879e-5,"MEAN_MOTION_DOT":-6.0e-8,"MEAN_MOTION_DDOT":0},{"OBJECT_NAME":"ONEWEB-0620","OBJECT_ID":"2023-004X","EPOCH":"2025-11-26T04:31:53.203008","MEAN_MOTION":13.11414975,"ECCENTRICITY":0.0001645,"INCLINATION":87.8863,"RA_OF_ASC_NODE":61.5081,"ARG_OF_PERICENTER":99.4812,"MEAN_ANOMALY":260.6502,"EPHEMERIS_TYPE":0,"CLASSIFICATION_TYPE":"U","NORAD_CAT_ID":55161,"ELEMENT_SET_NO":999,"REV_AT_EPOCH":13922,"BSTAR":0.0003528,"MEAN_MOTION_DOT":1.38e-6,"MEAN_MOTION_DDOT":0},{"OBJECT_NAME":"ONEWEB-0621","OBJECT_ID":"2023-004Y","EPOCH":"2025-11-25T16:21:52.082784","MEAN_MOTION":13.11418918,"ECCENTRICITY":0.00016246,"INCLINATION":87.8871,"RA_OF_ASC_NODE":61.5786,"ARG_OF_PERICENTER":110.4317,"MEAN_ANOMALY":249.6985,"EPHEMERIS_TYPE":0,"CLASSIFICATION_TYPE":"U","NORAD_CAT_ID":55162,"ELEMENT_SET_NO":999,"REV_AT_EPOCH":13913,"BSTAR":-0.0010606447,"MEAN_MOTION_DOT":-3.63e-6,"MEAN_MOTION_DDOT":0},{"OBJECT_NAME":"ONEWEB-0622","OBJECT_ID":"2023-004Z","EPOCH":"2025-11-25T23:48:39.088512","MEAN_MOTION":13.11418903,"ECCENTRICITY":9.083e-5,"INCLINATION":87.886,"RA_OF_ASC_NODE":61.5275,"ARG_OF_PERICENTER":104.7095,"MEAN_ANOMALY":255.4134,"EPHEMERIS_TYPE":0,"CLASSIFICATION_TYPE":"U","NORAD_CAT_ID":55163,"ELEMENT_SET_NO":999,"REV_AT_EPOCH":13916,"BSTAR":-0.00098019935,"MEAN_MOTION_DOT":-3.35e-6,"MEAN_MOTION_DDOT":0},{"OBJECT_NAME":"ONEWEB-0623","OBJECT_ID":"2023-004AA","EPOCH":"2025-11-26T04:37:25.832640","MEAN_MOTION":13.17649939,"ECCENTRICITY":0.0001245,"INCLINATION":87.9122,"RA_OF_ASC_NODE":46.2517,"ARG_OF_PERICENTER":125.3913,"MEAN_ANOMALY":234.7335,"EPHEMERIS_TYPE":0,"CLASSIFICATION_TYPE":"U","NORAD_CAT_ID":55164,"ELEMENT_SET_NO":999,"REV_AT_EPOCH":14085,"BSTAR":3.4451e-5,"MEAN_MOTION_DOT":2.6e-7,"MEAN_MOTION_DDOT":0},{"OBJECT_NAME":"ONEWEB-0624","OBJECT_ID":"2023-004AB","EPOCH":"2025-11-26T04:09:54.568800","MEAN_MOTION":13.1291918,"ECCENTRICITY":0.0001524,"INCLINATION":87.8949,"RA_OF_ASC_NODE":30.9578,"ARG_OF_PERICENTER":107.5174,"MEAN_ANOMALY":252.6121,"EPHEMERIS_TYPE":0,"CLASSIFICATION_TYPE":"U","NORAD_CAT_ID":55165,"ELEMENT_SET_NO":999,"REV_AT_EPOCH":14143,"BSTAR":0.00071856,"MEAN_MOTION_DOT":2.73e-6,"MEAN_MOTION_DDOT":0},{"OBJECT_NAME":"ONEWEB-0625","OBJECT_ID":"2023-004AC","EPOCH":"2025-11-26T04:22:50.532384","MEAN_MOTION":13.17650423,"ECCENTRICITY":0.0001937,"INCLINATION":87.9122,"RA_OF_ASC_NODE":46.2487,"ARG_OF_PERICENTER":103.6157,"MEAN_ANOMALY":256.519,"EPHEMERIS_TYPE":0,"CLASSIFICATION_TYPE":"U","NORAD_CAT_ID":55166,"ELEMENT_SET_NO":999,"REV_AT_EPOCH":14084,"BSTAR":-9.8455e-5,"MEAN_MOTION_DOT":-2.5e-7,"MEAN_MOTION_DDOT":0},{"OBJECT_NAME":"ONEWEB-0626","OBJECT_ID":"2023-004AD","EPOCH":"2025-11-26T04:08:14.998848","MEAN_MOTION":13.17647884,"ECCENTRICITY":0.0001818,"INCLINATION":87.9125,"RA_OF_ASC_NODE":46.2507,"ARG_OF_PERICENTER":85.496,"MEAN_ANOMALY":274.6379,"EPHEMERIS_TYPE":0,"CLASSIFICATION_TYPE":"U","NORAD_CAT_ID":55167,"ELEMENT_SET_NO":999,"REV_AT_EPOCH":14084,"BSTAR":0.00012017,"MEAN_MOTION_DOT":6.0e-7,"MEAN_MOTION_DDOT":0}]
