ONEWEB-0572             
1 55151U 23004M   25330.16227080  .00000072  00000+0  15188-3 0  9999
2 55151  87.9136  46.2399 0001680  95.5161 264.6162 13.17647822140742
ONEWEB-0573             
1 55152U 23004N   25330.14468336  .00000042  00000+0  72604-4 0  9993
2 55152  87.9179  15.8220 0001474  70.2234 289.9057 13.18684471142935
ONEWEB-0588             
1 55153U 23004P   25330.13809455  .00000070  00000+0  14358-3 0  9996
2 55153  87.9191  15.8164 0001416  88.8285 271.3009 13.18685217142935
ONEWEB-0598             
1 55154U 23004Q   25329.98195187 -.00000494  00000+0 -14302-2 0  9998
2 55154  87.8859  61.5419 0001936  85.0890 275.0460 13.11416907139260
ONEWEB-0599             
1 55155U 23004R   25330.19938964  .00000061  00000+0  12362-3 0  9995
2 55155  87.9132  46.2348 0001979  97.9001 262.2355 13.17647911140754
ONEWEB-0614             
1 55156U 23004S   25330.20575983 -.00000459  00000+0 -13301-2 0  9992
2 55156  87.8861  61.5069 0001390 110.6967 249.4310 13.11415654139234
ONEWEB-0616             
1 55157U 23004T   25330.16564323  .00000055  00000+0  10724-3 0  9991
2 55157  87.9136  46.2325 0002758 105.6771 254.4665 13.17648100140963
ONEWEB-0617             
1 55158U 23004U   25330.19389181 -.00000083  00000+0 -26994-3 0  9991
2 55158  87.8864  61.4883 0001368 101.4355 258.6927 13.11414872139255
ONEWEB-0618             
1 55159U 23004V   25330.06713281  .00010791  00000+0  65632-3 0  9997
2 55159  86.9091 259.9789 0012173 341.0713  19.0071 15.10272932151571
ONEWEB-0619             
1 55160U 23004W   25330.19770549 -.00000006  00000+0 -49879-4 0  9999
2 55160  87.9133  46.2000 0001869 117.3649 242.7673 13.17647213140862
ONEWEB-0620             
1 55161U 23004X   25330.18881022  .00000138  00000+0  35280-3 0  9992
2 55161  87.8863  61.5081 0001645  99.4812 260.6502 13.11414975139224
ONEWEB-0621             
1 55162U 23004Y   25329.68185281 -.00000363  00000+0 -10606-2 0  9996
2 55162  87.8871  61.5786 0001624 110.4317 249.6985 13.11418918139130
ONEWEB-0622             
1 55163U 23004Z   25329.99211908 -.00000335  00000+0 -98020-3 0  9993
2 55163  87.8860  61.5275 0000908 104.7095 255.4134 13.11418903139163
ONEWEB-0623             
1 55164U 23004AA  25330.19266010  .00000026  00000+0  34451-4 0  9996
2 55164  87.9122  46.2517 0001245 125.3913 234.7335 13.17649939140850
ONEWEB-0624             
1 55165U 23004AB  25330.17354825  .00000273  00000+0  71856-3 0  9990
2 55165  87.8949  30.9578 0001524 107.5174 252.6121 13.12919180141435
ONEWEB-0625             
1 55166U 23004AC  25330.18252931 -.00000025  00000+0 -98455-4 0  9999
2 55166  87.9122  46.2487 0001937 103.6157 256.5190 13.17650423140845
ONEWEB-0626             
1 55167U 23004AD  25330.17239582  .00000060  00000+0  12017-3 0  9992
2 55167  87.9125  46.2507 0001818  85.4960 274.6379 13.17647884140846
